{"type": "FeatureCollection", "features": [ {"type": "Feature", "properties": {"norad_id": 60989, "name": "SENTINEL-2C", "group": "resource", "lat": 15.257630583004687, "lon": -109.43076343950673, "alt_km": 789.4508882782702, "timestamp": "2025-12-21T20:41:07.643596+00:00", "meta": {"OBJECT_NAME": "SENTINEL-2C", "OBJECT_ID": "2024-157A", "EPOCH": "2025-12-21T11:31:40.274400", "MEAN_MOTION": 14.30820836, "ECCENTRICITY": 0.00011968, "INCLINATION": 98.5672, "RA_OF_ASC_NODE": 67.8366, "ARG_OF_PERICENTER": 95.324, "MEAN_ANOMALY": 264.8079, "EPHEMERIS_TYPE": 0, "CLASSIFICATION_TYPE": "U", "NORAD_CAT_ID": 60989, "ELEMENT_SET_NO": 999, "REV_AT_EPOCH": 6757, "BSTAR": 6.4988239e-05, "MEAN_MOTION_DOT": 1.27e-06, "MEAN_MOTION_DDOT": 0}, "tle": {"line1": "1 60989U 24157A   25355.48032725  .00000127  00000+0  64988-4 0  9990", "line2": "2 60989  98.5672  67.8366 0001196  95.3240 264.8079 14.30820836 67573"}}, "geometry": {"type": "Point", "coordinates": [-109.43076343950673, 15.257630583004687]}}, {"type": "Feature", "properties": {"norad_id": 61735, "name": "IONOSFERA-M 1", "group": "resource", "lat": 14.554941022272018, "lon": 47.92877752369837, "alt_km": 817.3721230817491, "timestamp": "2025-12-21T20:41:07.643605+00:00", "meta": {"OBJECT_NAME": "IONOSFERA-M 1", "OBJECT_ID": "2024-199A", "EPOCH": "2025-12-21T14:50:53.060352", "MEAN_MOTION": 14.2271589, "ECCENTRICITY": 5.253e-05, "INCLINATION": 98.7398, "RA_OF_ASC_NODE": 225.3985, "ARG_OF_PERICENTER": 9.6697, "MEAN_ANOMALY": 350.4491, "EPHEMERIS_TYPE": 0, "CLASSIFICATION_TYPE": "U", "NORAD_CAT_ID": 61735, "ELEMENT_SET_NO": 999, "REV_AT_EPOCH": 10245, "BSTAR": 4.192185e-05, "MEAN_MOTION_DOT": 5e-07, "MEAN_MOTION_DDOT": 0}, "tle": {"line1": "1 61735U 24199A   25355.61866968  .00000050  00000+0  41922-4 0  9993", "line2": "2 61735  98.7398 225.3985 0000525   9.6697 350.4491 14.22715890102458"}}, "geometry": {"type": "Point", "coordinates": [47.92877752369837, 14.554941022272018]}}, {"type": "Feature", "properties": {"norad_id": 61736, "name": "IONOSFERA-M 2", "group": "resource", "lat": -12.101220747010927, "lon": -132.557800259919, "alt_km": 820.9892211679744, "timestamp": "2025-12-21T20:41:07.643614+00:00", "meta": {"OBJECT_NAME": "IONOSFERA-M 2", "OBJECT_ID": "2024-199B", "EPOCH": "2025-12-21T15:40:45.419808", "MEAN_MOTION": 14.22718061, "ECCENTRICITY": 0.00018164, "INCLINATION": 98.7396, "RA_OF_ASC_NODE": 225.3453, "ARG_OF_PERICENTER": 99.2222, "MEAN_ANOMALY": 260.9161, "EPHEMERIS_TYPE": 0, "CLASSIFICATION_TYPE": "U", "NORAD_CAT_ID": 61736, "ELEMENT_SET_NO": 999, "REV_AT_EPOCH": 10558, "BSTAR": 4.3151174e-05, "MEAN_MOTION_DOT": 5.2e-07, "MEAN_MOTION_DDOT": 0}, "tle": {"line1": "1 61736U 24199B   25355.65330347  .00000052  00000+0  43151-4 0  9993", "line2": "2 61736  98.7396 225.3453 0001816  99.2222 260.9161 14.22718061105589"}}, "geometry": {"type": "Point", "coordinates": [-132.557800259919, -12.101220747010927]}}, {"type": "Feature", "properties": {"norad_id": 63772, "name": "BIOMASS", "group": "resource", "lat": -29.27567092595883, "lon": -3.8234277725376042, "alt_km": 675.3432650363729, "timestamp": "2025-12-21T20:41:07.643624+00:00", "meta": {"OBJECT_NAME": "BIOMASS", "OBJECT_ID": "2025-090A", "EPOCH": "2025-12-21T06:38:34.325088", "MEAN_MOTION": 14.67533283, "ECCENTRICITY": 0.0001162, "INCLINATION": 98.0694, "RA_OF_ASC_NODE": 180.1621, "ARG_OF_PERICENTER": 85.4071, "MEAN_ANOMALY": 274.7266, "EPHEMERIS_TYPE": 0, "CLASSIFICATION_TYPE": "U", "NORAD_CAT_ID": 63772, "ELEMENT_SET_NO": 999, "REV_AT_EPOCH": 3459, "BSTAR": 0.000187, "MEAN_MOTION_DOT": 1.012e-05, "MEAN_MOTION_DDOT": 0}, "tle": {"line1": "1 63772U 25090A   25355.27678617  .00001012  00000+0  18700-3 0  9997", "line2": "2 63772  98.0694 180.1621 0001162  85.4071 274.7266 14.67533283 34594"}}, "geometry": {"type": "Point", "coordinates": [-3.8234277725376042, -29.27567092595883]}}, {"type": "Feature", "properties": {"norad_id": 64694, "name": "GOSAT-GW (IBUKI GW)", "group": "resource", "lat": 58.82377481420593, "lon": -82.30607156073552, "alt_km": 662.2525720140675, "timestamp": "2025-12-21T20:41:07.643633+00:00", "meta": {"OBJECT_NAME": "GOSAT-GW (IBUKI GW)", "OBJECT_ID": "2025-141A", "EPOCH": "2025-12-21T13:52:07.280256", "MEAN_MOTION": 14.6756154, "ECCENTRICITY": 0.00014315, "INCLINATION": 98.0436, "RA_OF_ASC_NODE": 290.931, "ARG_OF_PERICENTER": 84.3373, "MEAN_ANOMALY": 275.7995, "EPHEMERIS_TYPE": 0, "CLASSIFICATION_TYPE": "U", "NORAD_CAT_ID": 64694, "ELEMENT_SET_NO": 999, "REV_AT_EPOCH": 2579, "BSTAR": 0.00020273283, "MEAN_MOTION_DOT": 1.103e-05, "MEAN_MOTION_DDOT": 0}, "tle": {"line1": "1 64694U 25141A   25355.57786204  .00001103  00000+0  20273-3 0  9992", "line2": "2 64694  98.0436 290.9310 0001431  84.3373 275.7995 14.67561540 25798"}}, "geometry": {"type": "Point", "coordinates": [-82.30607156073552, 58.82377481420593]}}, {"type": "Feature", "properties": {"norad_id": 64876, "name": "IONOSFERA-M 3", "group": "resource", "lat": -9.818987655052835, "lon": -41.032494945577604, "alt_km": 823.7594540720229, "timestamp": "2025-12-21T20:41:07.643642+00:00", "meta": {"OBJECT_NAME": "IONOSFERA-M 3", "OBJECT_ID": "2025-155A", "EPOCH": "2025-12-21T13:58:28.280928", "MEAN_MOTION": 14.2144303, "ECCENTRICITY": 0.000198, "INCLINATION": 98.5795, "RA_OF_ASC_NODE": 317.1986, "ARG_OF_PERICENTER": 45.6577, "MEAN_ANOMALY": 314.4763, "EPHEMERIS_TYPE": 0, "CLASSIFICATION_TYPE": "U", "NORAD_CAT_ID": 64876, "ELEMENT_SET_NO": 999, "REV_AT_EPOCH": 2117, "BSTAR": 4.5074788e-05, "MEAN_MOTION_DOT": 5.6e-07, "MEAN_MOTION_DDOT": 0}, "tle": {"line1": "1 64876U 25155A   25355.58227177  .00000056  00000+0  45075-4 0  9993", "line2": "2 64876  98.5795 317.1986 0001980  45.6577 314.4763 14.21443030 21174"}}, "geometry": {"type": "Point", "coordinates": [-41.032494945577604, -9.818987655052835]}}, {"type": "Feature", "properties": {"norad_id": 64877, "name": "IONOSFERA-M 4", "group": "resource", "lat": 8.870989424325588, "lon": 138.7397783113251, "alt_km": 822.6155294014397, "timestamp": "2025-12-21T20:41:07.643651+00:00", "meta": {"OBJECT_NAME": "IONOSFERA-M 4", "OBJECT_ID": "2025-155B", "EPOCH": "2025-12-21T14:48:57.407040", "MEAN_MOTION": 14.21444158, "ECCENTRICITY": 0.00013836, "INCLINATION": 98.5794, "RA_OF_ASC_NODE": 317.152, "ARG_OF_PERICENTER": 54.8444, "MEAN_ANOMALY": 305.2863, "EPHEMERIS_TYPE": 0, "CLASSIFICATION_TYPE": "U", "NORAD_CAT_ID": 64877, "ELEMENT_SET_NO": 999, "REV_AT_EPOCH": 2117, "BSTAR": 4.0862475e-05, "MEAN_MOTION_DOT": 4.7e-07, "MEAN_MOTION_DDOT": 0}, "tle": {"line1": "1 64877U 25155B   25355.61733110  .00000047  00000+0  40862-4 0  9996", "line2": "2 64877  98.5794 317.1520 0001383  54.8444 305.2863 14.21444158 21171"}}, "geometry": {"type": "Point", "coordinates": [138.7397783113251, 8.870989424325588]}}, {"type": "Feature", "properties": {"norad_id": 64899, "name": "MICROCARB", "group": "resource", "lat": -5.410593813835571, "lon": -109.70269269421141, "alt_km": 653.5390808019965, "timestamp": "2025-12-21T20:41:07.643660+00:00", "meta": {"OBJECT_NAME": "MICROCARB", "OBJECT_ID": "2025-156A", "EPOCH": "2025-12-21T05:09:56.513088", "MEAN_MOTION": 14.72069919, "ECCENTRICITY": 0.0017535, "INCLINATION": 98.0016, "RA_OF_ASC_NODE": 70.4245, "ARG_OF_PERICENTER": 119.2699, "MEAN_ANOMALY": 241.0264, "EPHEMERIS_TYPE": 0, "CLASSIFICATION_TYPE": "U", "NORAD_CAT_ID": 64899, "ELEMENT_SET_NO": 999, "REV_AT_EPOCH": 2178, "BSTAR": 9.7829e-05, "MEAN_MOTION_DOT": 5.67e-06, "MEAN_MOTION_DDOT": 0}, "tle": {"line1": "1 64899U 25156A   25355.21523742  .00000567  00000+0  97829-4 0  9997", "line2": "2 64899  98.0016  70.4245 0017535 119.2699 241.0264 14.72069919 21787"}}, "geometry": {"type": "Point", "coordinates": [-109.70269269421141, -5.410593813835571]}}, {"type": "Feature", "properties": {"norad_id": 64900, "name": "CO3D 3", "group": "resource", "lat": 4.577918520339338, "lon": 71.50131318389836, "alt_km": 507.5048669921098, "timestamp": "2025-12-21T20:41:07.643669+00:00", "meta": {"OBJECT_NAME": "CO3D 3", "OBJECT_ID": "2025-156B", "EPOCH": "2025-12-21T14:20:46.343040", "MEAN_MOTION": 15.20197765, "ECCENTRICITY": 0.00012169, "INCLINATION": 97.4337, "RA_OF_ASC_NODE": 71.84, "ARG_OF_PERICENTER": 81.5849, "MEAN_ANOMALY": 278.5524, "EPHEMERIS_TYPE": 0, "CLASSIFICATION_TYPE": "U", "NORAD_CAT_ID": 64900, "ELEMENT_SET_NO": 999, "REV_AT_EPOCH": 2255, "BSTAR": 0.00020937567, "MEAN_MOTION_DOT": 4.467e-05, "MEAN_MOTION_DDOT": 0}, "tle": {"line1": "1 64900U 25156B   25355.59775860  .00004467  00000+0  20938-3 0  9990", "line2": "2 64900  97.4337  71.8400 0001216  81.5849 278.5524 15.20197765 22559"}}, "geometry": {"type": "Point", "coordinates": [71.50131318389836, 4.577918520339338]}}, {"type": "Feature", "properties": {"norad_id": 64901, "name": "CO3D 4", "group": "resource", "lat": 3.7273522081113923, "lon": 71.6111956495876, "alt_km": 508.6455778555719, "timestamp": "2025-12-21T20:41:07.643678+00:00", "meta": {"OBJECT_NAME": "CO3D 4", "OBJECT_ID": "2025-156C", "EPOCH": "2025-12-21T14:20:59.957088", "MEAN_MOTION": 15.20203773, "ECCENTRICITY": 0.00012782, "INCLINATION": 97.4341, "RA_OF_ASC_NODE": 71.8384, "ARG_OF_PERICENTER": 166.8206, "MEAN_ANOMALY": 193.3063, "EPHEMERIS_TYPE": 0, "CLASSIFICATION_TYPE": "U", "NORAD_CAT_ID": 64901, "ELEMENT_SET_NO": 999, "REV_AT_EPOCH": 2255, "BSTAR": 0.00020450043, "MEAN_MOTION_DOT": 4.362e-05, "MEAN_MOTION_DDOT": 0}, "tle": {"line1": "1 64901U 25156C   25355.59791617  .00004362  00000+0  20450-3 0  9992", "line2": "2 64901  97.4341  71.8384 0001278 166.8206 193.3063 15.20203773 22557"}}, "geometry": {"type": "Point", "coordinates": [71.6111956495876, 3.7273522081113923]}}]}